METOP-B                 
1 38771U 12049A   26060.42046838  .00000143  00000+0  85191-4 0  9996
2 38771  98.6660 113.9985 0001291 310.6780  49.4285 14.21441529697958
SARAL                   
1 39086U 13009A   26060.50059714  .00000153  00000+0  72083-4 0  9996
2 39086  98.5551 248.4191 0001018 210.4952 149.6173 14.32825131680187
METOP-C                 
1 43689U 18087A   26060.44515377  .00000140  00000+0  83715-4 0  9996
2 43689  98.6784 121.9574 0002141 111.3696 248.7710 14.21493842379521
OTB-3-GAZELLE           
1 54023U 22127A   26060.48714921  .00000090  00000+0  40065-4 0  9995
2 54023  98.3899  53.8609 0013727 148.9791 211.2212 14.42631984178832
EOS-6 (OCEANSAT-3)      
1 54361U 22158A   26060.49767390  .00000422  00000+0  12807-3 0  9994
2 54361  98.3493 160.1590 0000384  29.2886 330.8328 14.46996943172269
KINEIS-1B               
1 60079U 24114A   26060.52457289  .00001417  00000+0  19246-3 0  9997
2 60079  97.9931  85.1913 0003876  89.8051 270.3605 14.80390773 91470
KINEIS-1C               
1 60081U 24114C   26060.55825657  .00001325  00000+0  18050-3 0  9991
2 60081  97.9952  85.0486 0001908 127.6572 232.4813 14.80383355 91459
KINEIS-1D               
1 60082U 24114D   26060.53937896  .00000967  00000+0  14751-3 0  9994
2 60082  97.9975  81.8174 0002063 137.2860 222.8510 14.76095981 91247
KINEIS-1E               
1 60083U 24114E   26060.50766468  .00001325  00000+0  18045-3 0  9996
2 60083  97.9938  85.0801 0002475  97.3499 262.7994 14.80401208 91451
KINEIS-1A               
1 60084U 24114F   26060.54152747  .00001102  00000+0  15118-3 0  9991
2 60084  97.9944  85.2358 0004731 110.8156 249.3563 14.80417912 91469
KINEIS-3C               
1 61220U 24172A   26060.21765609  .00002763  00000+0  44535-3 0  9998
2 61220  98.0306 151.3219 0003474 117.8270 242.3289 14.72265429 77180
KINEIS-3D               
1 61221U 24172B   26060.21102582  .00002733  00000+0  44052-3 0  9995
2 61221  98.0306 151.3267 0002493 120.8795 239.2658 14.72269312 77461
KINEIS-3E               
1 61222U 24172C   26060.26189027  .00002642  00000+0  42620-3 0  9998
2 61222  98.0303 151.3725 0001638 111.6998 248.4384 14.72258552 77474
KINEIS-3A               
1 61223U 24172D   26060.24497441  .00002681  00000+0  43212-3 0  9990
2 61223  98.0295 151.4446 0003198  87.9066 272.2507 14.72286157 76899
KINEIS-3B               
1 61224U 24172E   26060.22783428  .00002693  00000+0  43441-3 0  9999
2 61224  98.0295 151.4615 0003758  80.8498 279.3134 14.72240167 77460
KINEIS-5C               
1 62081U 24219A   26060.47669286  .00001246  00000+0  20472-3 0  9997
2 62081  97.9726 222.0907 0001710  98.8299 261.3102 14.72339813 67903
KINEIS-5D               
1 62082U 24219B   26060.51059221  .00001332  00000+0  21844-3 0  9995
2 62082  97.9649 222.1111 0001231  73.7802 286.3541 14.72315548 67910
KINEIS-5E               
1 62083U 24219C   26060.52730390  .00000345  00000+0  62325-4 0  9993
2 62083  97.9698 222.3200 0002211 134.6638 225.4750 14.72312336 67928
KINEIS-5A               
1 62084U 24219D   26060.49064562  .00000986  00000+0  16418-3 0  9993
2 62084  97.9813 222.3779 0001115 252.9220 107.1865 14.72190459 67925
KINEIS-5B               
1 62085U 24219E   26060.48700909  .00002207  00000+0  31275-3 0  9991
2 62085  97.9926 225.0327 0000992 226.1796 133.9332 14.78033536 68096
KINEIS-2C               
1 62929U 25028B   26060.09603195  .00001478  00000+0  24172-3 0  9990
2 62929  98.0295 115.3688 0001667  46.3708 313.7637 14.72288584 56700
KINEIS-2D               
1 62930U 25028C   26060.15940604  .00001894  00000+0  28691-3 0  9990
2 62930  97.9431 114.6455 0003488 168.1188 192.0104 14.75303150 56789
KINEIS-2E               
1 62931U 25028D   26060.15966406  .00001593  00000+0  23488-3 0  9994
2 62931  97.9099 114.0481 0001770 117.9154 242.2236 14.76681979 56839
KINEIS-2A               
1 62932U 25028E   26060.12322175  .00001308  00000+0  21596-3 0  9993
2 62932  98.0701 115.6887 0003436 219.9391 140.1564 14.72073121 56702
KINEIS-2B               
1 62934U 25028G   26060.14971621  .00001432  00000+0  23019-3 0  9993
2 62934  97.9811 114.9259 0004721 128.7601 231.4029 14.73084714 56754
KINEIS-4E               
1 63300U 25056A   26060.53106917  .00002890  00000+0  46475-3 0  9993
2 63300  97.9926 186.9737 0000440 202.2565 157.8624 14.72316215 51288
KINEIS-4C               
1 63301U 25056B   26060.47561763  .00002976  00000+0  47790-3 0  9997
2 63301  97.9986 187.0805 0000864  48.3192 311.8089 14.72357090 51281
KINEIS-4D               
1 63302U 25056C   26060.54855039  .00003068  00000+0  49276-3 0  9992
2 63302  97.9968 187.1315 0000655 345.5951  14.5238 14.72328396 51293
KINEIS-4A               
1 63303U 25056D   26060.51363197 -.00000874  00000+0 -13071-3 0  9997
2 63303  97.9940 187.0254 0001607 279.0332  81.0694 14.72266271 51284
KINEIS-4B               
1 63304U 25056E   26060.42882630  .00002638  00000+0  42411-3 0  9994
2 63304  97.9988 186.9875 0001682 223.0966 137.0110 14.72404736 51262
